STARLINK-32904          
1 63198U 25048R   25110.91668981  .00050541  00000+0  86239-3 0  9998
2 63198  42.9993 111.3814 0001564 271.1877 357.9365 15.50558540  6128
STARLINK-32931          
1 63199U 25048S   25110.91668981 -.00034530  00000+0 -82196-3 0  9999
2 63199  43.0000 111.6535 0001375 283.7338 232.8011 15.40741047  6027
STARLINK-32934          
1 63200U 25048T   25110.91668981 -.00001810  00000+0 -36082-4 0  9991
2 63200  42.9995 111.6235 0001422 280.4006 248.6215 15.40693389  6124
STARLINK-32938          
1 63201U 25048U   25110.91668981 -.01490788  00000+0 -34986-1 0  9997
2 63201  42.9996 111.4305 0001294 259.2897 349.7053 15.44270499  6121
STARLINK-32935          
1 63202U 25048V   25110.45488209 -.00003539  00000+0 -77506-4 0  9991
2 63202  43.0068 114.5863 0002921 263.6401  96.4123 15.40687441  7619
STARLINK-32930          
1 63203U 25048W   25109.51411507  .00000175  00000+0  88002-5 0  9999
2 63203  43.0032 119.5606 0001596 271.0992  88.9686 15.50578264  7473
STARLINK-11654 [DTC]    
1 63265U 25053A   25110.80246518 -.00003024  00000+0 -14502-4 0  9996
2 63265  43.0023 261.5427 0002345 288.7465  71.3151 15.77868774  6854
STARLINK-11659 [DTC]    
1 63266U 25053B   25110.60768941  .00002216  00000+0  15593-4 0  9995
2 63266  42.9952 262.6557 0001635 266.0309  94.0374 15.77859774  6823
STARLINK-11653 [DTC]    
1 63267U 25053C   25110.85114782 -.00000821  00000+0 -18522-5 0  9999
2 63267  42.9940 261.0431 0001450  25.9858 334.1085 15.77851022  6860
STARLINK-11641 [DTC]    
1 63268U 25053D   25110.79270902  .00000196  00000+0  40000-5 0  9999
2 63268  43.0014 261.4639 0002614 279.2889  80.7686 15.77856719  6858
STARLINK-11638 [DTC]    
1 63269U 25053E   25110.78295380  .00000293  00000+0  45489-5 0  9990
2 63269  42.9976 261.3835 0001446 273.0348  87.0356 15.77856954  6850
STARLINK-11614 [DTC]    
1 63270U 25053F   25110.81760832 -.00004107  00000+0 -20768-4 0  9997
2 63270  42.9988 261.6702 0002389 263.7375  96.3223 15.77823785  6856
STARLINK-11620 [DTC]    
1 63271U 25053G   25110.81710700  .00000686  00000+0  68164-5 0  9996
2 63271  42.9966 261.6724 0003121 276.1292  83.9223 15.77853259  6859
STARLINK-11619 [DTC]    
1 63272U 25053H   25110.81223587 -.00000596  00000+0 -56018-6 0  9997
2 63272  43.0008 261.6227 0001727 266.6302  93.4371 15.77850452  6855
STARLINK-11621 [DTC]    
1 63273U 25053J   25110.80733956 -.00012399  00000+0 -68460-4 0  9999
2 63273  42.9970 261.5832 0001503 236.5273 123.5453 15.77864269  6855
STARLINK-11615 [DTC]    
1 63274U 25053K   25110.77381411 -.00008710  00000+0 -47318-4 0  9992
2 63274  42.9956 262.2064 0000925 259.9480 100.1286 15.77823099  6841
STARLINK-11608 [DTC]    
1 63275U 25053L   25110.76890448  .00003736  00000+0  24337-4 0  9994
2 63275  43.0017 262.1662 0007618 245.9869 114.0204 15.77851498  6834
STARLINK-11623 [DTC]    
1 63276U 25053M   25110.82734525 -.00005260  00000+0 -27379-4 0  9990
2 63276  42.9987 261.7439 0004379 240.4320 119.6114 15.77825086  6845
STARLINK-11612 [DTC]    
1 63277U 25053N   25110.75918328 -.00003327  00000+0 -16275-4 0  9993
2 63277  42.9980 262.0905 0002249 263.8084  96.2530 15.77827395  6848
STARLINK-33660          
1 63278U 25053P   25110.82033915 -.00005202  00000+0 -11726-3 0  9991
2 63278  43.0036 266.9988 0002106 245.1690 114.8947 15.40721235  6794
STARLINK-33611          
1 63279U 25053Q   25110.91668981  .00115125  00000+0  27287-2 0  9991
2 63279  42.9994 265.7249 0001266 292.4116 181.2358 15.40624137  6929
STARLINK-33646          
1 63280U 25053R   25110.73312193  .00006637  00000+0  16618-3 0  9998
2 63280  42.9993 267.2007 0000597 274.1781  85.9007 15.40665575  6786
STARLINK-33665          
1 63281U 25053S   25110.91668981 -.01465968  00000+0 -35648-1 0  9999
2 63281  42.9994 265.6122 0001156 278.5131 241.4242 15.43181056  6934
STARLINK-33603          
1 63282U 25053T   25110.88278774 -.00002078  00000+0 -42471-4 0  9996
2 63282  43.0002 265.7283 0002822 241.2464 118.8109 15.40706603  6817
STARLINK-33669          
1 63283U 25053U   25110.91668981  .00110943  00000+0  26295-2 0  9997
2 63283  42.9994 265.8146 0001475 285.9092 150.4229 15.40644573  6935
STARLINK-33673          
1 63284U 25053V   25110.76882540 -.00000771  00000+0 -11201-4 0  9992
2 63284  43.0003 266.6008 0000952 344.3944  15.6883 15.40700122  6908
STARLINK-33662          
1 63285U 25053W   25110.91668981  .00107556  00000+0  25508-2 0  9991
2 63285  42.9992 265.8747 0001497 266.5129 144.9493 15.40642020  6871
STARLINK-33613          
1 63286U 25053X   25110.81361926  .00001149  00000+0  34778-4 0  9992
2 63286  43.0022 266.9481 0001897 241.5486 118.5180 15.40697625  6790
STARLINK-33680          
1 63287U 25053Y   25110.91668981  .00287507  00000+0  66671-2 0  9994
2 63287  42.9996 265.9375 0001512 282.5584 103.8883 15.40548359  6873
STARLINK-11568 [DTC]    
1 63307U 25057A   25110.88374386  .00002352  00000+0  16381-4 0  9998
2 63307  42.9962  50.7525 0001508 264.8140  95.2558 15.77847952  6405
