OBJECT_NAME,OBJECT_ID,EPOCH,MEAN_MOTION,ECCENTRICITY,INCLINATION,RA_OF_ASC_NODE,ARG_OF_PERICENTER,MEAN_ANOMALY,EPHEMERIS_TYPE,CLASSIFICATION_TYPE,NORAD_CAT_ID,ELEMENT_SET_NO,REV_AT_EPOCH,BSTAR,MEAN_MOTION_DOT,MEAN_MOTION_DDOT
STARLINK-32904,2025-048R,2025-04-20T22:00:01.999584,15.50558540,.0001564,42.9993,111.3814,271.1877,357.9365,0,U,63198,999,612,.86239E-3,.50541E-3,0
STARLINK-32931,2025-048S,2025-04-20T22:00:01.999584,15.40741047,.0001375,43.0000,111.6535,283.7338,232.8011,0,U,63199,999,602,-.82196E-3,-.3453E-3,0
STARLINK-32934,2025-048T,2025-04-20T22:00:01.999584,15.40693389,.0001422,42.9995,111.6235,280.4006,248.6215,0,U,63200,999,612,-.36082E-4,-.181E-4,0
STARLINK-32938,2025-048U,2025-04-20T22:00:01.999584,15.44270499,.0001294,42.9996,111.4305,259.2897,349.7053,0,U,63201,999,612,-.34986E-1,-.1490788E-1,0
STARLINK-32935,2025-048V,2025-04-20T10:55:01.812576,15.40687441,.0002921,43.0068,114.5863,263.6401,96.4123,0,U,63202,999,761,-.77506E-4,-.3539E-4,0
STARLINK-32930,2025-048W,2025-04-19T12:20:19.542048,15.50578264,.0001596,43.0032,119.5606,271.0992,88.9686,0,U,63203,999,747,.88002E-5,.175E-5,0
STARLINK-11654 [DTC],2025-053A,2025-04-20T19:15:32.991552,15.77868774,.0002345,43.0023,261.5427,288.7465,71.3151,0,U,63265,999,685,-.14502E-4,-.3024E-4,0
STARLINK-11659 [DTC],2025-053B,2025-04-20T14:35:04.365024,15.77859774,.0001635,42.9952,262.6557,266.0309,94.0374,0,U,63266,999,682,.15593E-4,.2216E-4,0
STARLINK-11653 [DTC],2025-053C,2025-04-20T20:25:39.171648,15.77851022,.000145,42.9940,261.0431,25.9858,334.1085,0,U,63267,999,686,-.18522E-5,-.821E-5,0
STARLINK-11641 [DTC],2025-053D,2025-04-20T19:01:30.059328,15.77856719,.0002614,43.0014,261.4639,279.2889,80.7686,0,U,63268,999,685,.4E-5,.196E-5,0
STARLINK-11638 [DTC],2025-053E,2025-04-20T18:47:27.208320,15.77856954,.0001446,42.9976,261.3835,273.0348,87.0356,0,U,63269,999,685,.45489E-5,.293E-5,0
STARLINK-11614 [DTC],2025-053F,2025-04-20T19:37:21.358848,15.77823785,.0002389,42.9988,261.6702,263.7375,96.3223,0,U,63270,999,685,-.20768E-4,-.4107E-4,0
STARLINK-11620 [DTC],2025-053G,2025-04-20T19:36:38.044800,15.77853259,.0003121,42.9966,261.6724,276.1292,83.9223,0,U,63271,999,685,.68164E-5,.686E-5,0
STARLINK-11619 [DTC],2025-053H,2025-04-20T19:29:37.179168,15.77850452,.0001727,43.0008,261.6227,266.6302,93.4371,0,U,63272,999,685,-.56018E-6,-.596E-5,0
STARLINK-11621 [DTC],2025-053J,2025-04-20T19:22:34.137984,15.77864269,.0001503,42.9970,261.5832,236.5273,123.5453,0,U,63273,999,685,-.6846E-4,-.12399E-3,0
STARLINK-11615 [DTC],2025-053K,2025-04-20T18:34:17.539104,15.77823099,.0000925,42.9956,262.2064,259.9480,100.1286,0,U,63274,999,684,-.47318E-4,-.871E-4,0
STARLINK-11608 [DTC],2025-053L,2025-04-20T18:27:13.347072,15.77851498,.0007618,43.0017,262.1662,245.9869,114.0204,0,U,63275,999,683,.24337E-4,.3736E-4,0
STARLINK-11623 [DTC],2025-053M,2025-04-20T19:51:22.629600,15.77825086,.0004379,42.9987,261.7439,240.4320,119.6114,0,U,63276,999,684,-.27379E-4,-.526E-4,0
STARLINK-11612 [DTC],2025-053N,2025-04-20T18:13:13.435392,15.77827395,.0002249,42.9980,262.0905,263.8084,96.2530,0,U,63277,999,684,-.16275E-4,-.3327E-4,0
STARLINK-33660,2025-053P,2025-04-20T19:41:17.302560,15.40721235,.0002106,43.0036,266.9988,245.1690,114.8947,0,U,63278,999,679,-.11726E-3,-.5202E-4,0
STARLINK-33611,2025-053Q,2025-04-20T22:00:01.999584,15.40624137,.0001266,42.9994,265.7249,292.4116,181.2358,0,U,63279,999,692,.27287E-2,.115125E-2,0
STARLINK-33646,2025-053R,2025-04-20T17:35:41.734752,15.40665575,.0000597,42.9993,267.2007,274.1781,85.9007,0,U,63280,999,678,.16618E-3,.6637E-4,0
STARLINK-33665,2025-053S,2025-04-20T22:00:01.999584,15.43181056,.0001156,42.9994,265.6122,278.5131,241.4242,0,U,63281,999,693,-.35648E-1,-.1465968E-1,0
STARLINK-33603,2025-053T,2025-04-20T21:11:12.860736,15.40706603,.0002822,43.0002,265.7283,241.2464,118.8109,0,U,63282,999,681,-.42471E-4,-.2078E-4,0
STARLINK-33669,2025-053U,2025-04-20T22:00:01.999584,15.40644573,.0001475,42.9994,265.8146,285.9092,150.4229,0,U,63283,999,693,.26295E-2,.110943E-2,0
STARLINK-33673,2025-053V,2025-04-20T18:27:06.514560,15.40700122,.0000952,43.0003,266.6008,344.3944,15.6883,0,U,63284,999,690,-.11201E-4,-.771E-5,0
STARLINK-33662,2025-053W,2025-04-20T22:00:01.999584,15.40642020,.0001497,42.9992,265.8747,266.5129,144.9493,0,U,63285,999,687,.25508E-2,.107556E-2,0
STARLINK-33613,2025-053X,2025-04-20T19:31:36.704064,15.40697625,.0001897,43.0022,266.9481,241.5486,118.5180,0,U,63286,999,679,.34778E-4,.1149E-4,0
STARLINK-33680,2025-053Y,2025-04-20T22:00:01.999584,15.40548359,.0001512,42.9996,265.9375,282.5584,103.8883,0,U,63287,999,687,.66671E-2,.287507E-2,0
STARLINK-11568 [DTC],2025-057A,2025-04-20T21:12:35.469504,15.77847952,.0001508,42.9962,50.7525,264.8140,95.2558,0,U,63307,999,640,.16381E-4,.2352E-4,0
